{"type": "FeatureCollection", "features": [ {"type": "Feature", "properties": {"norad_id": 65304, "name": "DRAGON CRS-33", "group": "stations", "lat": -13.559327517949436, "lon": -64.02145136171734, "alt_km": 419.5173329051768, "timestamp": "2025-12-20T07:33:49.544252+00:00", "meta": {"OBJECT_NAME": "DRAGON CRS-33", "OBJECT_ID": "2025-186A", "EPOCH": "2025-12-19T18:20:02.855616", "MEAN_MOTION": 15.49672026, "ECCENTRICITY": 0.00031868, "INCLINATION": 51.6318, "RA_OF_ASC_NODE": 107.6945, "ARG_OF_PERICENTER": 273.0117, "MEAN_ANOMALY": 87.0507, "EPHEMERIS_TYPE": 0, "CLASSIFICATION_TYPE": "U", "NORAD_CAT_ID": 65304, "ELEMENT_SET_NO": 999, "REV_AT_EPOCH": 11, "BSTAR": 0.0001262585, "MEAN_MOTION_DOT": 6.675e-05, "MEAN_MOTION_DDOT": 0}, "tle": {"line1": "1 65304U 25186A   25353.76392194  .00006675  00000+0  12626-3 0  9992", "line2": "2 65304  51.6318 107.6945 0003186 273.0117  87.0507 15.49672026   116"}}, "geometry": {"type": "Point", "coordinates": [-64.02145136171734, -13.559327517949436]}}, {"type": "Feature", "properties": {"norad_id": 65586, "name": "PROGRESS-MS 32", "group": "stations", "lat": -13.559328014938814, "lon": -64.02145093782715, "alt_km": 419.51733293161124, "timestamp": "2025-12-20T07:33:49.544262+00:00", "meta": {"OBJECT_NAME": "PROGRESS-MS 32", "OBJECT_ID": "2025-204A", "EPOCH": "2025-12-19T18:20:02.855616", "MEAN_MOTION": 15.49672026, "ECCENTRICITY": 0.00031868, "INCLINATION": 51.6318, "RA_OF_ASC_NODE": 107.6945, "ARG_OF_PERICENTER": 273.0117, "MEAN_ANOMALY": 87.0507, "EPHEMERIS_TYPE": 0, "CLASSIFICATION_TYPE": "U", "NORAD_CAT_ID": 65586, "ELEMENT_SET_NO": 999, "REV_AT_EPOCH": 27, "BSTAR": 0.0001262585, "MEAN_MOTION_DOT": 6.675e-05, "MEAN_MOTION_DDOT": 0}, "tle": {"line1": "1 65586U 25204A   25353.76392194  .00006675  00000+0  12626-3 0  9995", "line2": "2 65586  51.6318 107.6945 0003186 273.0117  87.0507 15.49672026   275"}}, "geometry": {"type": "Point", "coordinates": [-64.02145093782715, -13.559328014938814]}}, {"type": "Feature", "properties": {"norad_id": 65616, "name": "CYGNUS NG-23", "group": "stations", "lat": -13.559328462228802, "lon": -64.02145055632634, "alt_km": 419.5173329554027, "timestamp": "2025-12-20T07:33:49.544271+00:00", "meta": {"OBJECT_NAME": "CYGNUS NG-23", "OBJECT_ID": "2025-208A", "EPOCH": "2025-12-19T18:20:02.855616", "MEAN_MOTION": 15.49672026, "ECCENTRICITY": 0.00031868, "INCLINATION": 51.6318, "RA_OF_ASC_NODE": 107.6945, "ARG_OF_PERICENTER": 273.0117, "MEAN_ANOMALY": 87.0507, "EPHEMERIS_TYPE": 0, "CLASSIFICATION_TYPE": "U", "NORAD_CAT_ID": 65616, "ELEMENT_SET_NO": 999, "REV_AT_EPOCH": 22, "BSTAR": 0.0001262585, "MEAN_MOTION_DOT": 6.675e-05, "MEAN_MOTION_DDOT": 0}, "tle": {"line1": "1 65616U 25208A   25353.76392194  .00006675  00000+0  12626-3 0  9993", "line2": "2 65616  51.6318 107.6945 0003186 273.0117  87.0507 15.49672026   224"}}, "geometry": {"type": "Point", "coordinates": [-64.02145055632634, -13.559328462228802]}}, {"type": "Feature", "properties": {"norad_id": 65729, "name": "DRAGONFLY", "group": "stations", "lat": 50.59443901720455, "lon": -157.80281296820846, "alt_km": 342.93066168375753, "timestamp": "2025-12-20T07:33:49.544281+00:00", "meta": {"OBJECT_NAME": "DRAGONFLY", "OBJECT_ID": "1998-067XH", "EPOCH": "2025-12-19T14:23:03.835680", "MEAN_MOTION": 15.741828, "ECCENTRICITY": 0.000728, "INCLINATION": 51.6251, "RA_OF_ASC_NODE": 100.5779, "ARG_OF_PERICENTER": 320.5398, "MEAN_ANOMALY": 39.507, "EPHEMERIS_TYPE": 0, "CLASSIFICATION_TYPE": "U", "NORAD_CAT_ID": 65729, "ELEMENT_SET_NO": 999, "REV_AT_EPOCH": 1424, "BSTAR": 0.00096899, "MEAN_MOTION_DOT": 0.00144123, "MEAN_MOTION_DDOT": 0}, "tle": {"line1": "1 65729U 98067XH  25353.59934995  .00144123  00000+0  96899-3 0  9998", "line2": "2 65729  51.6251 100.5779 0007280 320.5398  39.5070 15.74182800 14248"}}, "geometry": {"type": "Point", "coordinates": [-157.80281296820846, 50.59443901720455]}}, {"type": "Feature", "properties": {"norad_id": 65731, "name": "1998-067XK", "group": "stations", "lat": -42.794485866755984, "lon": 51.565966948973205, "alt_km": 368.20215360156635, "timestamp": "2025-12-20T07:33:49.544292+00:00", "meta": {"OBJECT_NAME": "1998-067XK", "OBJECT_ID": "1998-067XK", "EPOCH": "2025-12-18T14:29:38.955840", "MEAN_MOTION": 15.66848038, "ECCENTRICITY": 0.0004791, "INCLINATION": 51.6292, "RA_OF_ASC_NODE": 107.4546, "ARG_OF_PERICENTER": 283.3796, "MEAN_ANOMALY": 76.6665, "EPHEMERIS_TYPE": 0, "CLASSIFICATION_TYPE": "U", "NORAD_CAT_ID": 65731, "ELEMENT_SET_NO": 999, "REV_AT_EPOCH": 1406, "BSTAR": 0.00083587979, "MEAN_MOTION_DOT": 0.00090673, "MEAN_MOTION_DDOT": 0}, "tle": {"line1": "1 65731U 98067XK  25352.60392310  .00090673  00000+0  83588-3 0  9992", "line2": "2 65731  51.6292 107.4546 0004791 283.3796  76.6665 15.66848038 14061"}}, "geometry": {"type": "Point", "coordinates": [51.565966948973205, -42.794485866755984]}}, {"type": "Feature", "properties": {"norad_id": 65732, "name": "RSP-03", "group": "stations", "lat": -1.9897715179804318, "lon": 96.29321719284228, "alt_km": 356.6364858481911, "timestamp": "2025-12-20T07:33:49.544302+00:00", "meta": {"OBJECT_NAME": "RSP-03", "OBJECT_ID": "1998-067XL", "EPOCH": "2025-12-19T10:11:34.022112", "MEAN_MOTION": 15.70283101, "ECCENTRICITY": 0.0005658, "INCLINATION": 51.6265, "RA_OF_ASC_NODE": 102.4221, "ARG_OF_PERICENTER": 294.5755, "MEAN_ANOMALY": 65.4652, "EPHEMERIS_TYPE": 0, "CLASSIFICATION_TYPE": "U", "NORAD_CAT_ID": 65732, "ELEMENT_SET_NO": 999, "REV_AT_EPOCH": 1421, "BSTAR": 0.00084699, "MEAN_MOTION_DOT": 0.00106087, "MEAN_MOTION_DDOT": 0}, "tle": {"line1": "1 65732U 98067XL  25353.42469933  .00106087  00000+0  84699-3 0  9991", "line2": "2 65732  51.6265 102.4221 0005658 294.5755  65.4652 15.70283101 14217"}}, "geometry": {"type": "Point", "coordinates": [96.29321719284228, -1.9897715179804318]}}, {"type": "Feature", "properties": {"norad_id": 65733, "name": "GHS-01", "group": "stations", "lat": 49.627946405739124, "lon": -152.5995593032158, "alt_km": 333.193504934663, "timestamp": "2025-12-20T07:33:49.544312+00:00", "meta": {"OBJECT_NAME": "GHS-01", "OBJECT_ID": "1998-067XM", "EPOCH": "2025-12-19T17:26:50.755776", "MEAN_MOTION": 15.77819432, "ECCENTRICITY": 0.00083434, "INCLINATION": 51.6273, "RA_OF_ASC_NODE": 99.1864, "ARG_OF_PERICENTER": 325.0318, "MEAN_ANOMALY": 35.0134, "EPHEMERIS_TYPE": 0, "CLASSIFICATION_TYPE": "U", "NORAD_CAT_ID": 65733, "ELEMENT_SET_NO": 999, "REV_AT_EPOCH": 1428, "BSTAR": 0.0010728211, "MEAN_MOTION_DOT": 0.00188446, "MEAN_MOTION_DDOT": 0}, "tle": {"line1": "1 65733U 98067XM  25353.72697634  .00188446  00000+0  10728-2 0  9996", "line2": "2 65733  51.6273  99.1864 0008343 325.0318  35.0134 15.77819432 14285"}}, "geometry": {"type": "Point", "coordinates": [-152.5995593032158, 49.627946405739124]}}, {"type": "Feature", "properties": {"norad_id": 65941, "name": "YOTSUBA-KULOVER", "group": "stations", "lat": -44.47880817989015, "lon": -27.045412540420887, "alt_km": 390.6230187058791, "timestamp": "2025-12-20T07:33:49.544322+00:00", "meta": {"OBJECT_NAME": "YOTSUBA-KULOVER", "OBJECT_ID": "1998-067XN", "EPOCH": "2025-12-19T10:32:35.848320", "MEAN_MOTION": 15.60329664, "ECCENTRICITY": 0.00017537, "INCLINATION": 51.6289, "RA_OF_ASC_NODE": 106.2819, "ARG_OF_PERICENTER": 320.2615, "MEAN_ANOMALY": 39.8249, "EPHEMERIS_TYPE": 0, "CLASSIFICATION_TYPE": "U", "NORAD_CAT_ID": 65941, "ELEMENT_SET_NO": 999, "REV_AT_EPOCH": 1090, "BSTAR": 0.0006131661, "MEAN_MOTION_DOT": 0.00050991, "MEAN_MOTION_DDOT": 0}, "tle": {"line1": "1 65941U 98067XN  25353.43930380  .00050991  00000+0  61317-3 0  9997", "line2": "2 65941  51.6289 106.2819 0001753 320.2615  39.8249 15.60329664 10907"}}, "geometry": {"type": "Point", "coordinates": [-27.045412540420887, -44.47880817989015]}}, {"type": "Feature", "properties": {"norad_id": 65942, "name": "BOTAN", "group": "stations", "lat": -34.88798171783905, "lon": 67.43583052302775, "alt_km": 377.0708066816869, "timestamp": "2025-12-20T07:33:49.544332+00:00", "meta": {"OBJECT_NAME": "BOTAN", "OBJECT_ID": "1998-067XP", "EPOCH": "2025-12-19T08:45:55.508256", "MEAN_MOTION": 15.64228558, "ECCENTRICITY": 0.00028928, "INCLINATION": 51.6281, "RA_OF_ASC_NODE": 105.787, "ARG_OF_PERICENTER": 295.6773, "MEAN_ANOMALY": 64.3923, "EPHEMERIS_TYPE": 0, "CLASSIFICATION_TYPE": "U", "NORAD_CAT_ID": 65942, "ELEMENT_SET_NO": 999, "REV_AT_EPOCH": 1090, "BSTAR": 0.00085844533, "MEAN_MOTION_DOT": 0.00083736, "MEAN_MOTION_DDOT": 0}, "tle": {"line1": "1 65942U 98067XP  25353.36522579  .00083736  00000+0  85845-3 0  9992", "line2": "2 65942  51.6281 105.7870 0002892 295.6773  64.3923 15.64228558 10902"}}, "geometry": {"type": "Point", "coordinates": [67.43583052302775, -34.88798171783905]}}, {"type": "Feature", "properties": {"norad_id": 65943, "name": "E-KAGAKU-1", "group": "stations", "lat": -44.265876666868884, "lon": -27.567800268249567, "alt_km": 389.80382621083663, "timestamp": "2025-12-20T07:33:49.544371+00:00", "meta": {"OBJECT_NAME": "E-KAGAKU-1", "OBJECT_ID": "1998-067XQ", "EPOCH": "2025-12-18T08:24:49.666176", "MEAN_MOTION": 15.60193795, "ECCENTRICITY": 0.00013451, "INCLINATION": 51.6302, "RA_OF_ASC_NODE": 111.7666, "ARG_OF_PERICENTER": 249.8249, "MEAN_ANOMALY": 110.26, "EPHEMERIS_TYPE": 0, "CLASSIFICATION_TYPE": "U", "NORAD_CAT_ID": 65943, "ELEMENT_SET_NO": 999, "REV_AT_EPOCH": 1073, "BSTAR": 0.00084619625, "MEAN_MOTION_DOT": 0.00070368, "MEAN_MOTION_DDOT": 0}, "tle": {"line1": "1 65943U 98067XQ  25352.35057484  .00070368  00000+0  84620-3 0  9996", "line2": "2 65943  51.6302 111.7666 0001345 249.8249 110.2600 15.60193795 10732"}}, "geometry": {"type": "Point", "coordinates": [-27.567800268249567, -44.265876666868884]}}]}